CCSDS_OMM_VERS = 2.0
CREATION_DATE  = 
ORIGINATOR     = 

OBJECT_NAME    = ATLAS CENTAUR R/B
OBJECT_ID      = 1972-065B
CENTER_NAME    = EARTH
REF_FRAME      = TEME
TIME_SYSTEM    = UTC
MEAN_ELEMENT_THEORY = SGP/SGP4

EPOCH          = 2025-12-15T15:11:51.072000
MEAN_MOTION    = 14.77417092
ECCENTRICITY   = .0033667
INCLINATION    = 35.0017
RA_OF_ASC_NODE = 78.2477
ARG_OF_PERICENTER = 22.1525
MEAN_ANOMALY   = 338.0623

EPHEMERIS_TYPE = 0
CLASSIFICATION_TYPE = U
NORAD_CAT_ID   = 6155
ELEMENT_SET_NO = 999
REV_AT_EPOCH   = 82882
BSTAR          = .18586181E-3
MEAN_MOTION_DOT = .1332E-4
MEAN_MOTION_DDOT = 0

CCSDS_OMM_VERS = 2.0
CREATION_DATE  = 
ORIGINATOR     = 

OBJECT_NAME    = SL-8 R/B
OBJECT_ID      = 1975-112B
CENTER_NAME    = EARTH
REF_FRAME      = TEME
TIME_SYSTEM    = UTC
MEAN_ELEMENT_THEORY = SGP/SGP4

EPOCH          = 2025-12-15T23:03:38.033568
MEAN_MOTION    = 14.38146915
ECCENTRICITY   = .00166471
INCLINATION    = 74.0588
RA_OF_ASC_NODE = 172.9332
ARG_OF_PERICENTER = 284.0205
MEAN_ANOMALY   = 75.9098

EPHEMERIS_TYPE = 0
CLASSIFICATION_TYPE = U
NORAD_CAT_ID   = 8459
ELEMENT_SET_NO = 999
REV_AT_EPOCH   = 61983
BSTAR          = .98231742E-4
MEAN_MOTION_DOT = .272E-5
MEAN_MOTION_DDOT = 0

CCSDS_OMM_VERS = 2.0
CREATION_DATE  = 
ORIGINATOR     = 

OBJECT_NAME    = SL-3 R/B
OBJECT_ID      = 1977-057B
CENTER_NAME    = EARTH
REF_FRAME      = TEME
TIME_SYSTEM    = UTC
MEAN_ELEMENT_THEORY = SGP/SGP4

EPOCH          = 2025-12-15T22:24:37.846368
MEAN_MOTION    = 15.43024253
ECCENTRICITY   = .00066583
INCLINATION    = 97.5679
RA_OF_ASC_NODE = 153.3859
ARG_OF_PERICENTER = 219.5993
MEAN_ANOMALY   = 140.4769

EPHEMERIS_TYPE = 0
CLASSIFICATION_TYPE = U
NORAD_CAT_ID   = 10114
ELEMENT_SET_NO = 999
REV_AT_EPOCH   = 65540
BSTAR          = .22210072E-3
MEAN_MOTION_DOT = .9712E-4
MEAN_MOTION_DDOT = 0

CCSDS_OMM_VERS = 2.0
CREATION_DATE  = 
ORIGINATOR     = 

OBJECT_NAME    = SEASAT 1
OBJECT_ID      = 1978-064A
CENTER_NAME    = EARTH
REF_FRAME      = TEME
TIME_SYSTEM    = UTC
MEAN_ELEMENT_THEORY = SGP/SGP4

EPOCH          = 2025-12-15T19:05:09.244032
MEAN_MOTION    = 14.46065184
ECCENTRICITY   = .00015533
INCLINATION    = 108.0120
RA_OF_ASC_NODE = 309.4443
ARG_OF_PERICENTER = 251.2831
MEAN_ANOMALY   = 108.8146

EPHEMERIS_TYPE = 0
CLASSIFICATION_TYPE = U
NORAD_CAT_ID   = 10967
ELEMENT_SET_NO = 999
REV_AT_EPOCH   = 49438
BSTAR          = .14226908E-3
MEAN_MOTION_DOT = .371E-5
MEAN_MOTION_DDOT = 0

CCSDS_OMM_VERS = 2.0
CREATION_DATE  = 
ORIGINATOR     = 

OBJECT_NAME    = SL-14 R/B
OBJECT_ID      = 1979-011B
CENTER_NAME    = EARTH
REF_FRAME      = TEME
TIME_SYSTEM    = UTC
MEAN_ELEMENT_THEORY = SGP/SGP4

EPOCH          = 2025-12-15T22:34:28.669440
MEAN_MOTION    = 14.91773345
ECCENTRICITY   = .00156216
INCLINATION    = 82.5233
RA_OF_ASC_NODE = 176.0085
ARG_OF_PERICENTER = 342.5730
MEAN_ANOMALY   = 17.4951

EPHEMERIS_TYPE = 0
CLASSIFICATION_TYPE = U
NORAD_CAT_ID   = 11267
ELEMENT_SET_NO = 999
REV_AT_EPOCH   = 51629
BSTAR          = .5392296E-4
MEAN_MOTION_DOT = .57E-5
MEAN_MOTION_DDOT = 0

CCSDS_OMM_VERS = 2.0
CREATION_DATE  = 
ORIGINATOR     = 

OBJECT_NAME    = SL-8 R/B
OBJECT_ID      = 1979-089B
CENTER_NAME    = EARTH
REF_FRAME      = TEME
TIME_SYSTEM    = UTC
MEAN_ELEMENT_THEORY = SGP/SGP4

EPOCH          = 2025-12-15T22:58:56.615808
MEAN_MOTION    = 14.42285939
ECCENTRICITY   = .0014521
INCLINATION    = 74.0688
RA_OF_ASC_NODE = 246.0237
ARG_OF_PERICENTER = 79.0663
MEAN_ANOMALY   = 281.2126

EPHEMERIS_TYPE = 0
CLASSIFICATION_TYPE = U
NORAD_CAT_ID   = 11574
ELEMENT_SET_NO = 999
REV_AT_EPOCH   = 42403
BSTAR          = .87275055E-4
MEAN_MOTION_DOT = .262E-5
MEAN_MOTION_DDOT = 0

CCSDS_OMM_VERS = 2.0
CREATION_DATE  = 
ORIGINATOR     = 

OBJECT_NAME    = SL-14 R/B
OBJECT_ID      = 1980-005B
CENTER_NAME    = EARTH
REF_FRAME      = TEME
TIME_SYSTEM    = UTC
MEAN_ELEMENT_THEORY = SGP/SGP4

EPOCH          = 2025-12-15T13:30:51.434784
MEAN_MOTION    = 14.90794930
ECCENTRICITY   = .00173748
INCLINATION    = 82.5147
RA_OF_ASC_NODE = 27.0216
ARG_OF_PERICENTER = 84.9160
MEAN_ANOMALY   = 275.4041

EPHEMERIS_TYPE = 0
CLASSIFICATION_TYPE = U
NORAD_CAT_ID   = 11672
ELEMENT_SET_NO = 999
REV_AT_EPOCH   = 46395
BSTAR          = .55879272E-4
MEAN_MOTION_DOT = .576E-5
MEAN_MOTION_DDOT = 0

CCSDS_OMM_VERS = 2.0
CREATION_DATE  = 
ORIGINATOR     = 

OBJECT_NAME    = SL-8 R/B
OBJECT_ID      = 1981-003B
CENTER_NAME    = EARTH
REF_FRAME      = TEME
TIME_SYSTEM    = UTC
MEAN_ELEMENT_THEORY = SGP/SGP4

EPOCH          = 2025-12-15T19:00:20.547936
MEAN_MOTION    = 15.07127724
ECCENTRICITY   = .02792208
INCLINATION    = 82.9306
RA_OF_ASC_NODE = 7.3949
ARG_OF_PERICENTER = 109.7210
MEAN_ANOMALY   = 253.4368

EPHEMERIS_TYPE = 0
CLASSIFICATION_TYPE = U
NORAD_CAT_ID   = 12139
ELEMENT_SET_NO = 999
REV_AT_EPOCH   = 30202
BSTAR          = .28652795E-3
MEAN_MOTION_DOT = .10846E-3
MEAN_MOTION_DDOT = 0

CCSDS_OMM_VERS = 2.0
CREATION_DATE  = 
ORIGINATOR     = 

OBJECT_NAME    = SL-3 R/B
OBJECT_ID      = 1981-046B
CENTER_NAME    = EARTH
REF_FRAME      = TEME
TIME_SYSTEM    = UTC
MEAN_ELEMENT_THEORY = SGP/SGP4

EPOCH          = 2025-12-15T17:58:30.417024
MEAN_MOTION    = 15.39671094
ECCENTRICITY   = .00186333
INCLINATION    = 81.2333
RA_OF_ASC_NODE = 30.3384
ARG_OF_PERICENTER = 313.5544
MEAN_ANOMALY   = 46.4149

EPHEMERIS_TYPE = 0
CLASSIFICATION_TYPE = U
NORAD_CAT_ID   = 12465
ELEMENT_SET_NO = 999
REV_AT_EPOCH   = 42550
BSTAR          = .2032733E-3
MEAN_MOTION_DOT = .81E-4
MEAN_MOTION_DDOT = 0

CCSDS_OMM_VERS = 2.0
CREATION_DATE  = 
ORIGINATOR     = 

OBJECT_NAME    = SL-3 R/B
OBJECT_ID      = 1981-103B
CENTER_NAME    = EARTH
REF_FRAME      = TEME
TIME_SYSTEM    = UTC
MEAN_ELEMENT_THEORY = SGP/SGP4

EPOCH          = 2025-12-15T22:49:25.401216
MEAN_MOTION    = 15.20272744
ECCENTRICITY   = .00119265
INCLINATION    = 81.1589
RA_OF_ASC_NODE = 311.5926
ARG_OF_PERICENTER = 201.5101
MEAN_ANOMALY   = 158.5631

EPHEMERIS_TYPE = 0
CLASSIFICATION_TYPE = U
NORAD_CAT_ID   = 12904
ELEMENT_SET_NO = 999
REV_AT_EPOCH   = 96050
BSTAR          = .19902781E-3
MEAN_MOTION_DOT = .4352E-4
MEAN_MOTION_DDOT = 0

CCSDS_OMM_VERS = 2.0
CREATION_DATE  = 
ORIGINATOR     = 

OBJECT_NAME    = SL-3 R/B
OBJECT_ID      = 1982-013B
CENTER_NAME    = EARTH
REF_FRAME      = TEME
TIME_SYSTEM    = UTC
MEAN_ELEMENT_THEORY = SGP/SGP4

EPOCH          = 2025-12-15T23:57:34.736544
MEAN_MOTION    = 15.21115662
ECCENTRICITY   = .00241202
INCLINATION    = 81.1752
RA_OF_ASC_NODE = 258.7950
ARG_OF_PERICENTER = 100.3554
MEAN_ANOMALY   = 260.0398

EPHEMERIS_TYPE = 0
CLASSIFICATION_TYPE = U
NORAD_CAT_ID   = 13068
ELEMENT_SET_NO = 999
REV_AT_EPOCH   = 39162
BSTAR          = .13491901E-3
MEAN_MOTION_DOT = .3051E-4
MEAN_MOTION_DDOT = 0

CCSDS_OMM_VERS = 2.0
CREATION_DATE  = 
ORIGINATOR     = 

OBJECT_NAME    = SL-3 R/B
OBJECT_ID      = 1982-039B
CENTER_NAME    = EARTH
REF_FRAME      = TEME
TIME_SYSTEM    = UTC
MEAN_ELEMENT_THEORY = SGP/SGP4

EPOCH          = 2025-12-15T22:53:10.772160
MEAN_MOTION    = 15.09545198
ECCENTRICITY   = .00295327
INCLINATION    = 81.1712
RA_OF_ASC_NODE = 312.3997
ARG_OF_PERICENTER = 241.3964
MEAN_ANOMALY   = 118.4290

EPHEMERIS_TYPE = 0
CLASSIFICATION_TYPE = U
NORAD_CAT_ID   = 13154
ELEMENT_SET_NO = 999
REV_AT_EPOCH   = 36900
BSTAR          = .13472164E-3
MEAN_MOTION_DOT = .2206E-4
MEAN_MOTION_DDOT = 0

