ATLAS CENTAUR R/B       
1 06155U 72065B   25349.63323000  .00001332  00000+0  18586-3 0  9996
2 06155  35.0017  78.2477 0033667  22.1525 338.0623 14.77417092828827
SL-8 R/B                
1 08459U 75112B   25349.96085687  .00000272  00000+0  98232-4 0  9992
2 08459  74.0588 172.9332 0016647 284.0205  75.9098 14.38146915619839
SL-3 R/B                
1 10114U 77057B   25349.93377137  .00009712  00000+0  22210-3 0  9994
2 10114  97.5679 153.3859 0006658 219.5993 140.4769 15.43024253655409
SEASAT 1                
1 10967U 78064A   25349.79524588  .00000371  00000+0  14227-3 0  9998
2 10967 108.0120 309.4443 0001553 251.2831 108.8146 14.46065184494385
SL-14 R/B               
1 11267U 79011B   25349.94060960  .00000570  00000+0  53923-4 0  9999
2 11267  82.5233 176.0085 0015621 342.5730  17.4951 14.91773345516292
SL-8 R/B                
1 11574U 79089B   25349.95759972  .00000262  00000+0  87275-4 0  9999
2 11574  74.0688 246.0237 0014521  79.0663 281.2126 14.42285939424033
SL-14 R/B               
1 11672U 80005B   25349.56309531  .00000576  00000+0  55879-4 0  9990
2 11672  82.5147  27.0216 0017374  84.9160 275.4041 14.90794930463950
SL-8 R/B                
1 12139U 81003B   25349.79190449  .00010846  00000+0  28653-3 0  9999
2 12139  82.9306   7.3949 0279220 109.7210 253.4368 15.07127724302024
SL-3 R/B                
1 12465U 81046B   25349.74896316  .00008100  00000+0  20327-3 0  9999
2 12465  81.2333  30.3384 0018633 313.5544  46.4149 15.39671094425506
SL-3 R/B                
1 12904U 81103B   25349.95098844  .00004352  00000+0  19903-3 0  9997
2 12904  81.1589 311.5926 0011926 201.5101 158.5631 15.20272744960509
SL-3 R/B                
1 13068U 82013B   25349.99831871  .00003051  00000+0  13492-3 0  9991
2 13068  81.1752 258.7950 0024120 100.3554 260.0398 15.21115662391626
SL-3 R/B                
1 13154U 82039B   25349.95359690  .00002206  00000+0  13472-3 0  9994
2 13154  81.1712 312.3997 0029532 241.3964 118.4290 15.09545198369000
